STARLINK-31610          
1 59473U 24068U   26068.28991497 -.00000914  00000+0 -23711-4 0  9992
2 59473  43.0045  36.5943 0000973 265.7582  94.3159 15.27581319108462
FLOCK 4G-14             
1 62667U 25009BL  26068.75869712  .00011310  00000+0  42676-3 0  9993
2 62667  97.4064 151.1836 0003006 318.3639  41.7371 15.27197201 63711
